[{"OBJECT_NAME":"STARLINK-3088","OBJECT_ID":"2021-082AK","EPOCH":"2022-08-18T18:07:53.985216","MEAN_MOTION":14.96719494,"ECCENTRICITY":0.0003184,"INCLINATION":70.0011,"RA_OF_ASC_NODE":309.4767,"ARG_OF_PERICENTER":255.4591,"MEAN_ANOMALY":104.6214,"EPHEMERIS_TYPE":0,"CLASSIFICATION_TYPE":"U","NORAD_CAT_ID":49163,"ELEMENT_SET_NO":999,"REV_AT_EPOCH":5306,"BSTAR":0.00031121,"MEAN_MOTION_DOT":3.473e-5,"MEAN_MOTION_DDOT":0},{"OBJECT_NAME":"STARLINK-3106","OBJECT_ID":"2021-082AL","EPOCH":"2022-08-18T17:53:52.679040","MEAN_MOTION":14.96728264,"ECCENTRICITY":0.0003174,"INCLINATION":70.0017,"RA_OF_ASC_NODE":309.4864,"ARG_OF_PERICENTER":250.2587,"MEAN_ANOMALY":109.8229,"EPHEMERIS_TYPE":0,"CLASSIFICATION_TYPE":"U","NORAD_CAT_ID":49164,"ELEMENT_SET_NO":999,"REV_AT_EPOCH":5307,"BSTAR":0.00029391,"MEAN_MOTION_DOT":3.275e-5,"MEAN_MOTION_DDOT":0},{"OBJECT_NAME":"STARLINK-3052","OBJECT_ID":"2021-082AM","EPOCH":"2022-08-18T17:17:30.112224","MEAN_MOTION":14.98346733,"ECCENTRICITY":0.0003218,"INCLINATION":70.0012,"RA_OF_ASC_NODE":329.6094,"ARG_OF_PERICENTER":252.2001,"MEAN_ANOMALY":107.8807,"EPHEMERIS_TYPE":0,"CLASSIFICATION_TYPE":"U","NORAD_CAT_ID":49165,"ELEMENT_SET_NO":999,"REV_AT_EPOCH":5260,"BSTAR":0.00010055,"MEAN_MOTION_DOT":1.107e-5,"MEAN_MOTION_DDOT":0},{"OBJECT_NAME":"STARLINK-3089","OBJECT_ID":"2021-082AN","EPOCH":"2022-08-19T05:14:35.628288","MEAN_MOTION":14.96555121,"ECCENTRICITY":0.0002771,"INCLINATION":69.9996,"RA_OF_ASC_NODE":308.2919,"ARG_OF_PERICENTER":254.4895,"MEAN_ANOMALY":105.5957,"EPHEMERIS_TYPE":0,"CLASSIFICATION_TYPE":"U","NORAD_CAT_ID":49166,"ELEMENT_SET_NO":999,"REV_AT_EPOCH":5317,"BSTAR":0.0029235,"MEAN_MOTION_DOT":0.00033392,"MEAN_MOTION_DDOT":0},{"OBJECT_NAME":"STARLINK-3054","OBJECT_ID":"2021-082AP","EPOCH":"2022-08-18T23:35:10.884768","MEAN_MOTION":14.98340012,"ECCENTRICITY":0.0003496,"INCLINATION":70.0007,"RA_OF_ASC_NODE":328.9514,"ARG_OF_PERICENTER":244.8232,"MEAN_ANOMALY":115.2564,"EPHEMERIS_TYPE":0,"CLASSIFICATION_TYPE":"U","NORAD_CAT_ID":49167,"ELEMENT_SET_NO":999,"REV_AT_EPOCH":5265,"BSTAR":0.00010492,"MEAN_MOTION_DOT":1.159e-5,"MEAN_MOTION_DDOT":0},{"OBJECT_NAME":"STARLINK-3101","OBJECT_ID":"2021-082AQ","EPOCH":"2022-08-19T04:53:31.363872","MEAN_MOTION":14.96727028,"ECCENTRICITY":0.0003463,"INCLINATION":70.0008,"RA_OF_ASC_NODE":308.3385,"ARG_OF_PERICENTER":250.0546,"MEAN_ANOMALY":110.0239,"EPHEMERIS_TYPE":0,"CLASSIFICATION_TYPE":"U","NORAD_CAT_ID":49168,"ELEMENT_SET_NO":999,"REV_AT_EPOCH":5317,"BSTAR":0.00013207,"MEAN_MOTION_DOT":1.421e-5,"MEAN_MOTION_DDOT":0},{"OBJECT_NAME":"STARLINK-3046","OBJECT_ID":"2021-082AR","EPOCH":"2022-08-18T11:21:54.254304","MEAN_MOTION":14.96728136,"ECCENTRICITY":0.0003619,"INCLINATION":70.0004,"RA_OF_ASC_NODE":310.1782,"ARG_OF_PERICENTER":248.9078,"MEAN_ANOMALY":111.1693,"EPHEMERIS_TYPE":0,"CLASSIFICATION_TYPE":"U","NORAD_CAT_ID":49169,"ELEMENT_SET_NO":999,"REV_AT_EPOCH":5307,"BSTAR":0.00026101,"MEAN_MOTION_DOT":2.898e-5,"MEAN_MOTION_DDOT":0},{"OBJECT_NAME":"STARLINK-3074","OBJECT_ID":"2021-082AS","EPOCH":"2022-08-18T11:44:57.377472","MEAN_MOTION":14.98339906,"ECCENTRICITY":0.0003408,"INCLINATION":70.0002,"RA_OF_ASC_NODE":330.1824,"ARG_OF_PERICENTER":253.8978,"MEAN_ANOMALY":106.1806,"EPHEMERIS_TYPE":0,"CLASSIFICATION_TYPE":"U","NORAD_CAT_ID":49170,"ELEMENT_SET_NO":999,"REV_AT_EPOCH":5137,"BSTAR":0.00024669,"MEAN_MOTION_DOT":2.852e-5,"MEAN_MOTION_DDOT":0},{"OBJECT_NAME":"STARLINK-3107","OBJECT_ID":"2021-082AT","EPOCH":"2022-08-19T04:13:45.608448","MEAN_MOTION":14.98338609,"ECCENTRICITY":0.0003555,"INCLINATION":70.0003,"RA_OF_ASC_NODE":328.4611,"ARG_OF_PERICENTER":261.1457,"MEAN_ANOMALY":98.93,"EPHEMERIS_TYPE":0,"CLASSIFICATION_TYPE":"U","NORAD_CAT_ID":49171,"ELEMENT_SET_NO":999,"REV_AT_EPOCH":5263,"BSTAR":0.00026092,"MEAN_MOTION_DOT":3.022e-5,"MEAN_MOTION_DDOT":0},{"OBJECT_NAME":"STARLINK-3091","OBJECT_ID":"2021-082AU","EPOCH":"2022-08-18T18:40:10.504704","MEAN_MOTION":14.96712543,"ECCENTRICITY":0.0003378,"INCLINATION":69.9997,"RA_OF_ASC_NODE":309.4161,"ARG_OF_PERICENTER":253.5206,"MEAN_ANOMALY":106.5581,"EPHEMERIS_TYPE":0,"CLASSIFICATION_TYPE":"U","NORAD_CAT_ID":49172,"ELEMENT_SET_NO":999,"REV_AT_EPOCH":5190,"BSTAR":3.5924e-6,"MEAN_MOTION_DOT":-5.1e-7,"MEAN_MOTION_DDOT":0},{"OBJECT_NAME":"STARLINK-3045","OBJECT_ID":"2021-082AV","EPOCH":"2022-08-18T11:09:32.671008","MEAN_MOTION":14.96717036,"ECCENTRICITY":0.000329,"INCLINATION":69.9997,"RA_OF_ASC_NODE":310.1962,"ARG_OF_PERICENTER":255.2304,"MEAN_ANOMALY":104.849,"EPHEMERIS_TYPE":0,"CLASSIFICATION_TYPE":"U","NORAD_CAT_ID":49173,"ELEMENT_SET_NO":999,"REV_AT_EPOCH":5186,"BSTAR":-3.4273e-6,"MEAN_MOTION_DOT":-1.31e-6,"MEAN_MOTION_DDOT":0},{"OBJECT_NAME":"STARLINK-3047","OBJECT_ID":"2021-082AW","EPOCH":"2022-08-18T17:19:07.419360","MEAN_MOTION":14.97103738,"ECCENTRICITY":0.0001982,"INCLINATION":70.0009,"RA_OF_ASC_NODE":309.5004,"ARG_OF_PERICENTER":259.5364,"MEAN_ANOMALY":100.5571,"EPHEMERIS_TYPE":0,"CLASSIFICATION_TYPE":"U","NORAD_CAT_ID":49174,"ELEMENT_SET_NO":999,"REV_AT_EPOCH":5307,"BSTAR":0.00034376,"MEAN_MOTION_DOT":3.884e-5,"MEAN_MOTION_DDOT":0},{"OBJECT_NAME":"STARLINK-3087","OBJECT_ID":"2021-082AX","EPOCH":"2022-08-18T14:59:34.030752","MEAN_MOTION":14.96727217,"ECCENTRICITY":0.0003154,"INCLINATION":70.0011,"RA_OF_ASC_NODE":309.804,"ARG_OF_PERICENTER":251.6409,"MEAN_ANOMALY":108.4406,"EPHEMERIS_TYPE":0,"CLASSIFICATION_TYPE":"U","NORAD_CAT_ID":49175,"ELEMENT_SET_NO":999,"REV_AT_EPOCH":5188,"BSTAR":0.0001747,"MEAN_MOTION_DOT":1.909e-5,"MEAN_MOTION_DDOT":0},{"OBJECT_NAME":"STARLINK-3069","OBJECT_ID":"2021-082AY","EPOCH":"2022-08-19T05:44:10.101120","MEAN_MOTION":14.96725163,"ECCENTRICITY":0.0003319,"INCLINATION":69.9984,"RA_OF_ASC_NODE":287.9924,"ARG_OF_PERICENTER":260.9074,"MEAN_ANOMALY":99.1708,"EPHEMERIS_TYPE":0,"CLASSIFICATION_TYPE":"U","NORAD_CAT_ID":49176,"ELEMENT_SET_NO":999,"REV_AT_EPOCH":5247,"BSTAR":0.00018825,"MEAN_MOTION_DOT":2.064e-5,"MEAN_MOTION_DDOT":0},{"OBJECT_NAME":"STARLINK-3103","OBJECT_ID":"2021-082AZ","EPOCH":"2022-08-18T10:57:29.618784","MEAN_MOTION":14.96702502,"ECCENTRICITY":0.0003,"INCLINATION":69.9989,"RA_OF_ASC_NODE":289.9641,"ARG_OF_PERICENTER":251.3356,"MEAN_ANOMALY":108.7477,"EPHEMERIS_TYPE":0,"CLASSIFICATION_TYPE":"U","NORAD_CAT_ID":49177,"ELEMENT_SET_NO":999,"REV_AT_EPOCH":5355,"BSTAR":0.00020762,"MEAN_MOTION_DOT":2.285e-5,"MEAN_MOTION_DDOT":0},{"OBJECT_NAME":"STARLINK-3086","OBJECT_ID":"2021-082BA","EPOCH":"2022-08-19T00:06:33.507936","MEAN_MOTION":14.98343239,"ECCENTRICITY":0.0003311,"INCLINATION":70.0014,"RA_OF_ASC_NODE":328.8971,"ARG_OF_PERICENTER":248.7706,"MEAN_ANOMALY":111.31,"EPHEMERIS_TYPE":0,"CLASSIFICATION_TYPE":"U","NORAD_CAT_ID":49178,"ELEMENT_SET_NO":999,"REV_AT_EPOCH":5260,"BSTAR":0.00023479,"MEAN_MOTION_DOT":2.711e-5,"MEAN_MOTION_DDOT":0},{"OBJECT_NAME":"STARLINK-3043","OBJECT_ID":"2021-082BB","EPOCH":"2022-08-18T10:43:25.066560","MEAN_MOTION":14.96700497,"ECCENTRICITY":0.0003641,"INCLINATION":69.9991,"RA_OF_ASC_NODE":289.9858,"ARG_OF_PERICENTER":248.937,"MEAN_ANOMALY":111.1399,"EPHEMERIS_TYPE":0,"CLASSIFICATION_TYPE":"U","NORAD_CAT_ID":49179,"ELEMENT_SET_NO":999,"REV_AT_EPOCH":5235,"BSTAR":-5.0006e-5,"MEAN_MOTION_DOT":-6.64e-6,"MEAN_MOTION_DDOT":0}]