STARLINK-3088           
1 49163U 21082AK  22230.75548594  .00003473  00000+0  31121-3 0  9999
2 49163  70.0011 309.4767 0003184 255.4591 104.6214 14.96719494 53063
STARLINK-3106           
1 49164U 21082AL  22230.74574860  .00003275  00000+0  29391-3 0  9990
2 49164  70.0017 309.4864 0003174 250.2587 109.8229 14.96728264 53074
STARLINK-3052           
1 49165U 21082AM  22230.72048741  .00001107  00000+0  10055-3 0  9992
2 49165  70.0012 329.6094 0003218 252.2001 107.8807 14.98346733 52608
STARLINK-3089           
1 49166U 21082AN  22231.21846792  .00033392  00000+0  29235-2 0  9990
2 49166  69.9996 308.2919 0002771 254.4895 105.5957 14.96555121 53179
STARLINK-3054           
1 49167U 21082AP  22230.98276487  .00001159  00000+0  10492-3 0  9994
2 49167  70.0007 328.9514 0003496 244.8232 115.2564 14.98340012 52656
STARLINK-3101           
1 49168U 21082AQ  22231.20383523  .00001421  00000+0  13207-3 0  9990
2 49168  70.0008 308.3385 0003463 250.0546 110.0239 14.96727028 53171
STARLINK-3046           
1 49169U 21082AR  22230.47354461  .00002898  00000+0  26101-3 0  9994
2 49169  70.0004 310.1782 0003619 248.9078 111.1693 14.96728136 53075
STARLINK-3074           
1 49170U 21082AS  22230.48955298  .00002852  00000+0  24669-3 0  9999
2 49170  70.0002 330.1824 0003408 253.8978 106.1806 14.98339906 51370
STARLINK-3107           
1 49171U 21082AT  22231.17622232  .00003022  00000+0  26092-3 0  9998
2 49171  70.0003 328.4611 0003555 261.1457  98.9300 14.98338609 52639
STARLINK-3091           
1 49172U 21082AU  22230.77789936 -.00000051  00000+0  35924-5 0  9995
2 49172  69.9997 309.4161 0003378 253.5206 106.5581 14.96712543 51905
STARLINK-3045           
1 49173U 21082AV  22230.46496147 -.00000131  00000+0 -34273-5 0  9997
2 49173  69.9997 310.1962 0003290 255.2304 104.8490 14.96717036 51862
STARLINK-3047           
1 49174U 21082AW  22230.72161365  .00003884  00000+0  34376-3 0  9996
2 49174  70.0009 309.5004 0001982 259.5364 100.5571 14.97103738 53075
STARLINK-3087           
1 49175U 21082AX  22230.62469943  .00001909  00000+0  17470-3 0  9991
2 49175  70.0011 309.8040 0003154 251.6409 108.4406 14.96727217 51882
STARLINK-3069           
1 49176U 21082AY  22231.23900580  .00002064  00000+0  18825-3 0  9995
2 49176  69.9984 287.9924 0003319 260.9074  99.1708 14.96725163 52475
STARLINK-3103           
1 49177U 21082AZ  22230.45659281  .00002285  00000+0  20762-3 0  9996
2 49177  69.9989 289.9641 0003000 251.3356 108.7477 14.96702502 53555
STARLINK-3086           
1 49178U 21082BA  22231.00455449  .00002711  00000+0  23479-3 0  9991
2 49178  70.0014 328.8971 0003311 248.7706 111.3100 14.98343239 52609
STARLINK-3043           
1 49179U 21082BB  22230.44681790 -.00000664  00000+0 -50006-4 0  9993
2 49179  69.9991 289.9858 0003641 248.9370 111.1399 14.96700497 52358
